[{"OBJECT_NAME":"OBJECT G","OBJECT_ID":"2024-092G","EPOCH":"2026-03-09T22:11:03.729408","MEAN_MOTION":14.31801198,"ECCENTRICITY":0.00127592,"INCLINATION":98.655,"RA_OF_ASC_NODE":188.1467,"ARG_OF_PERICENTER":137.1835,"MEAN_ANOMALY":223.0344,"EPHEMERIS_TYPE":0,"CLASSIFICATION_TYPE":"U","NORAD_CAT_ID":59779,"ELEMENT_SET_NO":999,"REV_AT_EPOCH":9469,"BSTAR":0.00013020254,"MEAN_MOTION_DOT":3.04e-6,"MEAN_MOTION_DDOT":0},{"OBJECT_NAME":"FENGYUN 1C DEB","OBJECT_ID":"1999-025BSC","EPOCH":"2026-03-09T17:00:18.544608","MEAN_MOTION":14.27379093,"ECCENTRICITY":0.00325962,"INCLINATION":99.3799,"RA_OF_ASC_NODE":70.9343,"ARG_OF_PERICENTER":184.6493,"MEAN_ANOMALY":175.4387,"EPHEMERIS_TYPE":0,"CLASSIFICATION_TYPE":"U","NORAD_CAT_ID":31372,"ELEMENT_SET_NO":999,"REV_AT_EPOCH":97091,"BSTAR":0.0017088682,"MEAN_MOTION_DOT":4.164e-5,"MEAN_MOTION_DDOT":0}]
